{
  "type": "FeatureCollection",
  "features": [
    {
      "type": "Feature",
      "properties": {
        "norad_id": 30893,
        "name": "FENGYUN 1C DEB",
        "group": "fengyun-1c-debris",
        "lat": 26.591734866778054,
        "lon": 22.264856618573432,
        "alt_km": 710.7013147005573,
        "timestamp": "2025-12-26T17:24:54.998676+00:00",
        "meta_object_name": "FENGYUN 1C DEB",
        "meta_object_id": "1999-025AYF",
        "meta_epoch": "2025-12-24T21:04:37.253280",
        "meta_mean_motion": 13.94098016,
        "meta_eccentricity": 0.0309071,
        "meta_inclination": 98.2549,
        "meta_ra_of_asc_node": 24.7778,
        "meta_arg_of_pericenter": 59.0037,
        "meta_mean_anomaly": 62.9275,
        "meta_ephemeris_type": 0,
        "meta_classification_type": "U",
        "meta_norad_cat_id": 30893,
        "meta_element_set_no": 999,
        "meta_rev_at_epoch": 95054,
        "meta_bstar": 0.00083697,
        "meta_mean_motion_dot": 1.612e-05,
        "meta_mean_motion_ddot": 0,
        "tle_line1": "1 30893U 99025AYF 25358.87820895  .00001612  00000+0  83697-3 0  9993",
        "tle_line2": "2 30893  98.2549  24.7778 0309071  59.0037  62.9275 13.94098016950546"
      },
      "geometry": {
        "type": "Point",
        "coordinates": [
          22.264856618573432,
          26.591734866778054
        ]
      }
    },
    {
      "type": "Feature",
      "properties": {
        "norad_id": 30895,
        "name": "FENGYUN 1C DEB",
        "group": "fengyun-1c-debris",
        "lat": 4.261753286266526,
        "lon": 68.62668160178674,
        "alt_km": 755.0308334434576,
        "timestamp": "2025-12-26T17:24:54.998685+00:00",
        "meta_object_name": "FENGYUN 1C DEB",
        "meta_object_id": "1999-025AYH",
        "meta_epoch": "2025-12-26T04:13:36.043968",
        "meta_mean_motion": 14.31575583,
        "meta_eccentricity": 0.02181535,
        "meta_inclination": 98.7175,
        "meta_ra_of_asc_node": 68.7297,
        "meta_arg_of_pericenter": 84.7817,
        "meta_mean_anomaly": 331.6331,
        "meta_ephemeris_type": 0,
        "meta_classification_type": "U",
        "meta_norad_cat_id": 30895,
        "meta_element_set_no": 999,
        "meta_rev_at_epoch": 97985,
        "meta_bstar": 0.00027003138,
        "meta_mean_motion_dot": 8.84e-06,
        "meta_mean_motion_ddot": 0,
        "tle_line1": "1 30895U 99025AYH 25360.17611162  .00000884  00000+0  27003-3 0  9995",
        "tle_line2": "2 30895  98.7175  68.7297 0218153  84.7817 331.6331 14.31575583979858"
      },
      "geometry": {
        "type": "Point",
        "coordinates": [
          68.62668160178674,
          4.261753286266526
        ]
      }
    },
    {
      "type": "Feature",
      "properties": {
        "norad_id": 30898,
        "name": "FENGYUN 1C DEB",
        "group": "fengyun-1c-debris",
        "lat": 77.8359301512827,
        "lon": -132.52771738571462,
        "alt_km": 458.32893921854065,
        "timestamp": "2025-12-26T17:24:54.998698+00:00",
        "meta_object_name": "FENGYUN 1C DEB",
        "meta_object_id": "1999-025AYL",
        "meta_epoch": "2025-12-25T00:05:27.139776",
        "meta_mean_motion": 15.23871046,
        "meta_eccentricity": 0.00415773,
        "meta_inclination": 99.0256,
        "meta_ra_of_asc_node": 272.9152,
        "meta_arg_of_pericenter": 73.1873,
        "meta_mean_anomaly": 287.3914,
        "meta_ephemeris_type": 0,
        "meta_classification_type": "U",
        "meta_norad_cat_id": 30898,
        "meta_element_set_no": 999,
        "meta_rev_at_epoch": 66558,
        "meta_bstar": 0.0036665107,
        "meta_mean_motion_dot": 0.00091568,
        "meta_mean_motion_ddot": 0,
        "tle_line1": "1 30898U 99025AYL 25359.00378634  .00091568  00000+0  36665-2 0  9994",
        "tle_line2": "2 30898  99.0256 272.9152 0041577  73.1873 287.3914 15.23871046665583"
      },
      "geometry": {
        "type": "Point",
        "coordinates": [
          -132.52771738571462,
          77.8359301512827
        ]
      }
    },
    {
      "type": "Feature",
      "properties": {
        "norad_id": 30899,
        "name": "FENGYUN 1C DEB",
        "group": "fengyun-1c-debris",
        "lat": 0.09517691015051069,
        "lon": 79.08773843507733,
        "alt_km": 774.4391131970806,
        "timestamp": "2025-12-26T17:24:54.998709+00:00",
        "meta_object_name": "FENGYUN 1C DEB",
        "meta_object_id": "1999-025AYM",
        "meta_epoch": "2025-12-25T12:41:08.078208",
        "meta_mean_motion": 14.33767723,
        "meta_eccentricity": 0.0030467,
        "meta_inclination": 99.1766,
        "meta_ra_of_asc_node": 257.8035,
        "meta_arg_of_pericenter": 253.0754,
        "meta_mean_anomaly": 231.7257,
        "meta_ephemeris_type": 0,
        "meta_classification_type": "U",
        "meta_norad_cat_id": 30899,
        "meta_element_set_no": 999,
        "meta_rev_at_epoch": 96838,
        "meta_bstar": 0.002155,
        "meta_mean_motion_dot": 5.975e-05,
        "meta_mean_motion_ddot": 0,
        "tle_line1": "1 30899U 99025AYM 25359.52856572  .00005975  00000+0  21550-2 0  9998",
        "tle_line2": "2 30899  99.1766 257.8035 0030467 253.0754 231.7257 14.33767723968389"
      },
      "geometry": {
        "type": "Point",
        "coordinates": [
          79.08773843507733,
          0.09517691015051069
        ]
      }
    },
    {
      "type": "Feature",
      "properties": {
        "norad_id": 30903,
        "name": "FENGYUN 1C DEB",
        "group": "fengyun-1c-debris",
        "lat": -64.51455595643661,
        "lon": -93.11461500674038,
        "alt_km": 945.6441654844721,
        "timestamp": "2025-12-26T17:24:54.998719+00:00",
        "meta_object_name": "FENGYUN 1C DEB",
        "meta_object_id": "1999-025AYR",
        "meta_epoch": "2025-12-23T22:43:24.937824",
        "meta_mean_motion": 13.97601805,
        "meta_eccentricity": 0.0096602,
        "meta_inclination": 99.3704,
        "meta_ra_of_asc_node": 243.7838,
        "meta_arg_of_pericenter": 63.0235,
        "meta_mean_anomaly": 298.0753,
        "meta_ephemeris_type": 0,
        "meta_classification_type": "U",
        "meta_norad_cat_id": 30903,
        "meta_element_set_no": 999,
        "meta_rev_at_epoch": 68861,
        "meta_bstar": 1.9133e-05,
        "meta_mean_motion_dot": -1.8e-07,
        "meta_mean_motion_ddot": 0,
        "tle_line1": "1 30903U 99025AYR 25357.94681641 -.00000018  00000+0  19133-4 0  9991",
        "tle_line2": "2 30903  99.3704 243.7838 0096602  63.0235 298.0753 13.97601805688619"
      },
      "geometry": {
        "type": "Point",
        "coordinates": [
          -93.11461500674038,
          -64.51455595643661
        ]
      }
    },
    {
      "type": "Feature",
      "properties": {
        "norad_id": 30905,
        "name": "FENGYUN 1C DEB",
        "group": "fengyun-1c-debris",
        "lat": -45.40540848981005,
        "lon": -112.99773592868213,
        "alt_km": 879.5455700038583,
        "timestamp": "2025-12-26T17:24:54.998729+00:00",
        "meta_object_name": "FENGYUN 1C DEB",
        "meta_object_id": "1999-025AYT",
        "meta_epoch": "2025-12-23T10:26:55.840128",
        "meta_mean_motion": 14.17883966,
        "meta_eccentricity": 0.00562256,
        "meta_inclination": 98.8882,
        "meta_ra_of_asc_node": 72.8422,
        "meta_arg_of_pericenter": 50.3782,
        "meta_mean_anomaly": 310.2336,
        "meta_ephemeris_type": 0,
        "meta_classification_type": "U",
        "meta_norad_cat_id": 30905,
        "meta_element_set_no": 999,
        "meta_rev_at_epoch": 96274,
        "meta_bstar": 0.001041541,
        "meta_mean_motion_dot": 2.117e-05,
        "meta_mean_motion_ddot": 0,
        "tle_line1": "1 30905U 99025AYT 25357.43536852  .00002117  00000+0  10415-2 0  9993",
        "tle_line2": "2 30905  98.8882  72.8422 0056225  50.3782 310.2336 14.17883966962741"
      },
      "geometry": {
        "type": "Point",
        "coordinates": [
          -112.99773592868213,
          -45.40540848981005
        ]
      }
    },
    {
      "type": "Feature",
      "properties": {
        "norad_id": 30907,
        "name": "FENGYUN 1C DEB",
        "group": "fengyun-1c-debris",
        "lat": 41.982508994630244,
        "lon": 13.294881260319384,
        "alt_km": 816.2582140925933,
        "timestamp": "2025-12-26T17:24:54.998739+00:00",
        "meta_object_name": "FENGYUN 1C DEB",
        "meta_object_id": "1999-025AYV",
        "meta_epoch": "2025-12-24T21:05:44.215008",
        "meta_mean_motion": 14.15129204,
        "meta_eccentricity": 0.0056279,
        "meta_inclination": 99.9513,
        "meta_ra_of_asc_node": 20.3271,
        "meta_arg_of_pericenter": 105.266,
        "meta_mean_anomaly": 255.474,
        "meta_ephemeris_type": 0,
        "meta_classification_type": "U",
        "meta_norad_cat_id": 30907,
        "meta_element_set_no": 999,
        "meta_rev_at_epoch": 1721,
        "meta_bstar": 0.00089271,
        "meta_mean_motion_dot": 1.706e-05,
        "meta_mean_motion_ddot": 0,
        "tle_line1": "1 30907U 99025AYV 25358.87898397  .00001706  00000+0  89271-3 0  9999",
        "tle_line2": "2 30907  99.9513  20.3271 0056279 105.2660 255.4740 14.15129204 17218"
      },
      "geometry": {
        "type": "Point",
        "coordinates": [
          13.294881260319384,
          41.982508994630244
        ]
      }
    }
  ]
}